294P/LINEAR,e,18.1506,311.6608,235.6091,3.192153,0.1728138,0.60147211,258.8454,01/04.0/2024,2000,g 15.5,4.0
# From MPEC 2022-K19
295P/LINEAR,e,21.0764,7.4137,72.9463,5.302919,0.0807108,0.61749230,284.8778,01/04.0/2024,2000,g 12.0,4.0
# From MPEC 2021-N06
296P/Garradd,e,25.2879,263.5224,349.9175,3.489000,0.1512351,0.47980896,182.0301,01/04.0/2024,2000,g 14.0,4.0
# From MPC102956
297P/Beshore,e,10.4871,95.2086,137.6350,3.493060,0.1509715,0.31742049,160.8055,01/04.0/2024,2000,g 15.0,4.0
# From MPC114609
298P/Christensen,e,7.8706,52.8099,100.5951,3.589425,0.1449328,0.38636729,176.1445,01/04.0/2024,2000,g 15.0,4.0
# From MPEC 2023-OA6
299P/Catalina-PANSTARRS,e,10.4675,271.5849,323.7016,4.389513,0.1071716,0.28093935,347.4144,01/04.0/2024,2000,g 11.5,4.0
# From MPEC 2023-VM5
300P/Catalina,e,5.6751,95.6167,222.9379,2.698085,0.2223927,0.69173559,59.5765,01/04.0/2024,2000,g 16.0,4.0
# From MPC 89014
301P/LINEAR-NEAT,e,10.3337,351.0869,193.5224,5.744922,0.0715777,0.58575191,245.6791,01/04.0/2024,2000,g 13.0,4.0
# From MPEC 2023-N01
302P/Lemmon-PANSTARRS,e,6.0343,121.7170,208.5860,4.270882,0.1116677,0.22996582,311.9668,01/04.0/2024,2000,g 12.5,4.0
# From MPC 92278
303P/NEAT,e,7.0177,347.9831,356.9959,5.042019,0.0870557,0.51066355,292.2967,01/04.0/2024,2000,g 13.5,4.0
# From MPEC 2022-K19
304P/Ory,e,2.6065,58.9404,335.2552,3.150466,0.1762552,0.60101012,218.2966,01/04.0/2024,2000,g 16.5,4.0
# From MPC101100
305P/Skiff,e,11.6668,240.1471,147.3669,4.636828,0.0987126,0.69400833,328.5986,01/04.0/2024,2000,g 18.0,4.0
# From MPC 92278
306P/LINEAR,e,8.3056,341.3750,0.8902,3.124430,0.1784629,0.59283768,257.2874,01/04.0/2024,2000,g 19.0,4.0
# From MPC 92278
307P/LINEAR,e,4.4370,158.1737,222.1858,5.788348,0.0707737,0.67551798,233.1077,01/04.0/2024,2000,g 15.0,4.0
# From MPEC 2022-C56
308P/Lagerkvist-Carsenty,e,4.8533,63.0962,333.6850,6.599431,0.0581359,0.36472421,183.5340,01/04.0/2024,2000,g 13.0,2.0
# From MPEC 2023-VM5
309P/LINEAR,e,17.0229,10.1449,49.9215,4.376439,0.1076522,0.61848139,350.8478,01/04.0/2024,2000,g 15.0,4.0
# From MPEC 2023-Y97
310P/Hill,e,13.1205,8.9103,31.5893,4.187442,0.1150220,0.42288425,8.3304,01/04.0/2024,2000,g 13.5,4.0
# From MPEC 2023-XP6
311P/PANSTARRS,e,4.9704,279.1745,144.2803,2.188920,0.3043402,0.11590088,0.6186,01/04.0/2024,2000,g 17.0,4.0
# From MPEC 2021-BE3
312P/NEAT,e,19.7598,144.7032,207.6569,3.470847,0.1524232,0.42728106,182.2924,01/04.0/2024,2000,g 16.0,4.0
# From MPEC 2021-S45
313P/Gibbs,e,10.9805,106.0022,254.8591,3.164215,0.1751076,0.23477385,237.7025,01/04.0/2024,2000,g 15.0,4.0
# From MPC105243
314P/Montani,e,3.9897,267.6134,213.8590,7.252978,0.0504579,0.41761261,133.3384,01/04.0/2024,2000,g  9.5,4.0
# From MPEC 2023-J29
315P/LONEOS,e,17.7323,68.7115,65.7871,4.939130,0.0897901,0.52143700,233.1129,01/04.0/2024,2000,g 11.0,4.0
# From MPC 92279
316P/LONEOS-Christensen,e,9.8100,192.2197,243.4131,4.416896,0.1061765,0.15811793,328.8289,01/04.0/2024,2000,g 13.5,4.0
# From MPEC 2020-C98
317P/WISE,e,11.9636,275.4674,334.8200,2.961559,0.1933853,0.57114327,231.1497,01/04.0/2024,2000,g 17.5,4.0
# From MPC102103
318P/McNaught-Hartley,e,17.8752,35.5600,313.3221,7.509112,0.0478984,0.67446491,143.3200,01/04.0/2024,2000,g  8.5,6.0
# From MPC 97499
319P/Catalina-McNaught,e,15.0941,111.3455,203.6630,3.563875,0.1464942,0.66635582,94.3091,01/04.0/2024,2000,g 15.0,4.0
# From MPC 96281
320P/McNaught,e,4.9039,295.9423,0.7826,3.094924,0.1810210,0.68488473,195.9754,01/04.0/2024,2000,g 20.5,4.0
# From MPC105243
321P/SOHO,e,20.0793,165.0104,172.7505,2.422494,0.2614027,0.98105893,0.0000,10/26.6096/2023,2000,g 20.0,4.0
# From MPC102103
322P/SOHO,e,11.4729,351.5071,56.9094,2.507949,0.2481567,0.97998196,0.0000,08/21.0882/2023,2000,g 19.0,4.0
# From MPEC 2023-XP6
323P/SOHO,e,5.3335,324.2786,353.1334,2.583403,0.2373645,0.98464000,0.0000,03/14.3134/2025,2000,g 20.0,4.0
# From MPEC 2021-W31
324P/LaSagra,e,21.3999,270.5789,57.5530,3.095487,0.1809717,0.15328670,176.3283,01/04.0/2024,2000,g 13.0,4.0
# From MPEC 2022-TA0
325P/Yang-Gao,e,16.7670,257.1997,344.4572,3.540347,0.1479570,0.59221146,95.5869,01/04.0/2024,2000,g 14.0,4.0
# From MPEC 2023-XP6
326P/Hill,e,2.4711,99.7962,278.6436,4.067786,0.1201343,0.31910422,0.5519,01/04.0/2024,2000,g 13.5,4.0
# From MPEC 2023-T65
327P/VanNess,e,36.2482,173.9879,185.0333,3.562173,0.1465992,0.56299588,71.6403,01/04.0/2024,2000,g 16.0,4.0
# From MPC109148
328P/LONEOS-Tucker,e,17.6753,341.6519,30.6047,4.188222,0.1149899,0.55267400,336.3154,01/04.0/2024,2000,g 14.5,4.0
# From MPC101101
329P/LINEAR-Catalina,e,21.7111,87.6854,343.5492,5.185801,0.0834604,0.67869585,246.4583,01/04.0/2024,2000,g 13.5,4.0
# From MPEC 2023-J29
330P/Catalina,e,15.7250,293.0792,188.8212,6.618893,0.0578797,0.54966937,155.4563,01/04.0/2024,2000,g 12.0,4.0
# From MPEC 2023-KD6
331P/Gibbs,e,9.7403,216.7522,184.8787,3.004556,0.1892490,0.04146466,224.2723,01/04.0/2024,2000,g 12.0,4.0
# From MPEC 2016-K18
332P/Ikeya-Murakami,e,9.3816,3.7626,152.2931,3.086988,0.1817196,0.48938951,157.8766,01/04.0/2024,2000,g 18.0,4.0
# From MPEC 2016-K18
332P-A/Ikeya-Murakami,e,9.3821,152.3096,3.7463,3.086984,0.1817199,0.48939245,157.8763,01/04.0/2024,2000,g  9.0,4.0
# From MPEC 2016-EI8
332P-B/Ikeya-Murakami,e,9.3805,3.8028,152.3711,3.082329,0.1821317,0.48970701,359.9699,03/17.0/2016,2000,g 19.0,4.0
# From MPEC 2016-K18
332P-C/Ikeya-Murakami,e,9.3812,152.3008,3.7467,3.086950,0.1817229,0.48939800,157.8931,01/04.0/2024,2000,g 16.5,4.0
# From MPEC 2016-ED0
332P-D/Ikeya-Murakami,e,9.3761,3.7923,152.4393,3.081138,0.1822373,0.48977814,359.9486,03/17.0/2016,2000,g 19.0,4.0
# From MPEC 2016-ED0
332P-E/Ikeya-Murakami,e,9.3774,3.8228,152.2825,3.079877,0.1823493,0.48922008,359.9889,03/17.0/2016,2000,g 21.0,4.0
# From MPEC 2016-ED0
332P-F/Ikeya-Murakami,e,9.5293,3.4757,152.8203,3.163214,0.1751908,0.49918860,359.8501,03/17.0/2016,2000,g 21.0,4.0
# From MPEC 2016-ED0
332P-G/Ikeya-Murakami,e,9.2523,3.6955,154.4000,3.050519,0.1849880,0.49200362,359.9006,03/19.0/2016,2000,g 19.0,4.0
# From MPC100285
332P-H/Ikeya-Murakami,e,9.3817,152.3015,3.7464,3.087132,0.1817068,0.48943360,157.8139,01/04.0/2024,2000,g 19.0,4.0
# From MPEC 2016-ED0
332P-I/Ikeya-Murakami,e,9.3791,3.8048,152.3297,3.081767,0.1821815,0.48955490,359.9360,03/17.0/2016,2000,g 20.5,2.0
# From MPEC 2016-EI8
332P-J/Ikeya-Murakami,e,9.4296,3.6729,152.7712,3.115165,0.1792596,0.49429435,359.8613,03/17.0/2016,2000,g 20.5,2.0
# From MPEC 2020-L06
333P/LINEAR,e,132.0099,115.6557,26.0017,4.222106,0.1136084,0.73650921,322.5086,01/04.0/2024,2000,g 15.0,4.0
# From MPEC 2023-J29
334P/NEAT,e,20.3797,90.5064,90.0433,6.831207,0.0552024,0.35091226,132.8168,01/04.0/2024,2000,g 10.5,4.0
# From MPEC 2023-M14
335P/Gibbs,e,7.2933,330.8254,162.2981,3.577946,0.1456308,0.54640807,74.2643,01/04.0/2024,2000,g 16.8,4.0
# From MPC105244
336P/McNaught,e,17.8238,298.2191,308.6604,5.037660,0.0871687,0.44383320,220.8012,01/04.0/2024,2000,g 13.5,4.0
# From MPEC 2023-UR6
337P/WISE,e,15.4130,105.5888,161.6615,3.294060,0.1648568,0.49805299,90.8172,01/04.0/2024,2000,g 17.0,4.0
# From MPEC 2023-J29
338P/McNaught,e,25.3866,9.7937,4.5685,3.891771,0.1283758,0.41211778,332.7883,01/04.0/2024,2000,g 12.0,4.0
# From MPC101101
339P/Gibbs,e,5.7331,27.4781,172.6990,3.700656,0.1384478,0.63567654,17.4530,01/04.0/2024,2000,g 17.0,4.0
# From MPC133426
340P/Boattini,e,2.0783,291.6759,36.0401,4.249154,0.1125254,0.28044509,292.1360,01/04.0/2024,2000,g 14.3,4.0
# From MPEC 2023-J29
341P/Gibbs,e,3.7967,29.9656,312.3183,4.288501,0.1109803,0.41552731,307.3339,01/04.0/2024,2000,g 12.5,4.0
# From MPC101101
342P/SOHO,e,11.6907,73.3120,27.6435,3.041139,0.1858445,0.98289084,0.0000,10/19.3542/2021,2000,g  9.0,4.0
# From MPEC 2023-J29
343P/NEAT-LONEOS,e,5.5954,257.0698,137.5617,5.457478,0.0773065,0.58527929,195.3586,01/04.0/2024,2000,g 14.0,4.0
# From MPEC 2023-J29
344P/Read,e,3.4979,273.1025,140.5297,4.858419,0.0920368,0.42369106,240.5936,01/04.0/2024,2000,g 13.0,4.0
# From MPEC 2022-K19
345P/LINEAR,e,2.7279,154.5956,196.6434,4.032193,0.1217284,0.22130972,330.8047,01/04.0/2024,2000,g 12.0,4.0
# From MPEC 2022-K19
346P/Catalina,e,22.2146,102.4534,335.9999,4.471262,0.1042459,0.50373697,261.9874,01/04.0/2024,2000,g 14.0,4.0
# From MPEC 2023-XP6
347P/PANSTARRS,e,11.7575,260.9927,98.4214,3.607842,0.1438245,0.38682524,24.1658,01/04.0/2024,2000,g 15.0,4.0
# From MPEC 2022-ED3
348P/PANSTARRS,e,17.7369,312.9389,135.6983,3.151938,0.1761317,0.30730137,121.5654,01/04.0/2024,2000,g 14.0,4.0
# From MPEC 2023-Y97
349P/Lemmon,e,5.4886,331.7546,255.8023,3.578175,0.1456169,0.29851288,339.0050,01/04.0/2024,2000,g 14.0,4.0
# From MPC111775
350P/McNaught,e,7.3638,65.2930,139.8540,4.082063,0.1195046,0.09422084,264.1052,01/04.0/2024,2000,g 14.0,4.0
# From MPC105244
351P/Wiegert-PANSTARRS,e,12.7766,352.6842,283.3403,4.440373,0.1053355,0.29482055,312.8595,01/04.0/2024,2000,g 12.5,4.0
# From MPEC 2023-J29
352P/Skiff,e,21.0140,28.0038,309.4030,6.650971,0.0574614,0.61711501,137.1666,01/04.0/2024,2000,g 13.2,4.0
# From MPEC 2020-AA5
353P/McNaught,e,28.4167,121.5397,230.4793,4.170627,0.1157183,0.47008865,254.7900,01/04.0/2024,2000,g 14.5,4.0
# From MPC105545
354P/LINEAR,e,5.2530,132.7460,320.0327,2.289883,0.2844357,0.12456143,23.3519,01/04.0/2024,2000,g 15.5,4.0
# From MPEC 2023-CD7
355P/LINEAR-NEAT,e,11.0472,51.4342,336.3387,3.468694,0.1525651,0.50795380,346.5099,01/04.0/2024,2000,g 15.5,2.0
# From MPEC 2022-F14
356P/WISE,e,9.6401,160.8190,226.1047,4.155030,0.1163705,0.35607540,256.4433,01/04.0/2024,2000,g 14.0,4.0
# From MPC114609
357P/Hill,e,6.3149,44.5814,1.4307,4.456504,0.1047641,0.43610275,213.9620,01/04.0/2024,2000,g 15.5,4.0
# From MPEC 2023-XP6
358P/PANSTARRS,e,11.0614,85.6749,299.6844,3.149892,0.1763033,0.23972173,9.5694,01/04.0/2024,2000,g 18.0,4.0
# From MPC110086
359P/LONEOS,e,10.2648,149.7798,200.2853,4.640950,0.0985811,0.32372904,229.1130,01/04.0/2024,2000,g 13.5,4.0
# From MPC108599
360P/WISE,e,24.1084,2.2164,354.2236,3.697826,0.1386067,0.49921832,322.0613,01/04.0/2024,2000,g 19.5,6.0
# From MPEC 2023-CD7
